,H,diameter,albedo,rot_per,diameter_sigma,epoch,e,a,q,i,om,w,ma,ad,n,tp,per,moid,moid_jup,t_jup,sigma_e,sigma_a,sigma_q,sigma_i,sigma_om,sigma_w,sigma_ma,sigma_ad,sigma_n,sigma_tp,sigma_per,rms,neo_flag,pha_flag,class_var
83,9.32,79.16,0.0527,23.562,1.6,2458600.5,0.2358436814565357,2.362489790921569,1.805311501227145,9.315346592681184,327.5144095625691,15.15479623832948,107.3105582716224,2.919668080615993,0.2714245729575236,2458205.1394874924,1326.335327996769,0.797648,2.48671,3.495,4.5356e-08,3.5762e-09,1.0711e-07,5.2029e-06,2.5467e-05,2.6952e-05,1.0888e-05,4.4196e-09,6.1629e-10,3.9752e-05,3.0116e-06,0.47341,0,0,C
84,7.61,154.79,0.0666,6.875,3.8,2458600.5,0.1945457654013658,2.65176538369909,2.135875657462504,11.96206345672214,203.1135452802829,123.0324710184819,220.6808457848026,3.167655109935676,0.2282450819112215,2459210.892798165,1577.251947711303,1.1514,2.33436,3.332,3.0843e-08,5.3631e-09,8.2117e-08,3.272e-06,1.7038e-05,1.8882e-05,9.2652e-06,6.4065e-09,6.9243e-10,4.1263e-05,4.7849e-06,0.49457,0,0,B
86,6.94,253.051,0.046,5.184,2.953,2458600.5,0.09306323489017362,3.482566206694637,3.158467329780433,10.87710555917944,73.04534153005218,263.557973341693,92.81710620780105,3.806665083608841,0.1516543952807906,2457988.4695604206,2373.818439837857,2.17369,1.57082,3.094,3.1451e-08,1.4853e-08,1.1226e-07,3.8771e-06,1.9514e-05,3.0156e-05,2.4204e-05,1.6235e-08,9.7018e-10,0.00015877,1.5186e-05,0.40564,0,0,X
88,6.6,145.483,0.189,11.387,1.265,2458600.5,0.1847480131860099,2.550012160047372,2.078902479878454,16.12960266446981,311.5493819483958,45.38136586810207,137.4519117192004,3.021121840216289,0.2420419798783683,2458032.615404988,1487.345295146356,1.10012,2.46347,3.362,4.708e-08,5.6259e-09,1.2173e-07,3.8034e-06,1.8569e-05,2.1501e-05,1.0888e-05,6.6653e-09,8.01e-10,4.4927e-05,4.9221e-06,0.56905,0,0,K
89,8.27,115.974,0.058,16.509,1.107,2458600.5,0.1660765115500163,3.149874890332235,2.626754656726867,2.206907183035621,69.97004210959162,244.8751712398587,145.1731192760414,3.672995123937602,0.1763047922423748,2457777.0787110515,2041.918404039128,1.61312,1.618,3.185,3.3776e-08,1.0724e-08,1.0877e-07,4.0385e-06,0.00010215,0.00010284,1.1737e-05,1.2505e-08,9.0034e-10,6.6914e-05,1.0428e-05,0.43164,0,0,C
90,8.84,103.402,0.048,6.025,0.483,2458600.5,0.1056781206900439,2.592223970434513,2.31828261283131,2.103166373674733,10.58636868805762,73.45951077089425,167.5573413236021,2.866165328037717,0.2361539915340771,2457890.974235751,1524.429028962874,1.33535,2.31503,3.41,3.8418e-08,6.3529e-09,9.9369e-08,3.2582e-06,0.00011159,0.00011303,1.7533e-05,7.0242e-09,8.6813e-10,7.3426e-05,5.604e-06,0.51513,0,0,C
91,6.61,126.42,0.2509,15.941,3.4,2458600.5,0.1045333125131938,3.185736394417524,2.852720816315222,9.93199978652398,101.5789012022375,239.132715597469,179.6851634433805,3.518751972519826,0.1733362187466528,2457563.8720826344,2076.888503759124,1.85836,1.8501,3.166,4.2207e-08,1.1638e-08,1.3653e-07,4.855e-06,2.8014e-05,3.6297e-05,2.4085e-05,1.2855e-08,9.4984e-10,0.00013761,1.1381e-05,0.50059,0,0,X
92,7.9,154.155,0.056,5.982,1.298,2458600.5,0.1390818503408454,2.756118500892535,2.372792440029764,8.556919875685537,4.049800522370844,274.8112139909227,117.1348311034068,3.139444561755306,0.2154057263121832,2458056.713012027,1671.26476237804,1.3753,2.06494,3.313,3.6055e-08,8.4846e-09,1.0135e-07,4.1477e-06,2.4219e-05,2.8726e-05,1.5303e-05,9.6646e-09,9.9468e-10,7.0257e-05,7.7174e-06,0.49515,0,0,C
93,7.57,204.89,0.0395,7.22,3.6,2458600.5,0.09394477998265134,3.156538539911055,2.859998221272352,7.970755529317809,2.574732956189706,60.46841342149876,308.8636279589481,3.453078858549759,0.175746801383977,2458891.4661606266,2048.401434137404,1.88276,1.8752,3.184,3.0376e-08,1.3928e-08,9.9961e-08,3.6309e-06,2.719e-05,3.5376e-05,2.3547e-05,1.5236e-08,1.1632e-09,0.0001348,1.3557e-05,0.43497,0,0,C
94,8.0,147.969,0.058,8.705,5.148,2458600.5,0.1525872289899646,3.065326793516076,2.597597072144764,12.99536696934405,243.0265841559385,153.9282839149762,74.07274699427786,3.533056514887387,0.1836491412537302,2458197.1616206937,1960.259642611794,1.61219,1.89126,3.176,4.1627e-08,1.0869e-08,1.2988e-07,4.6417e-06,2.1677e-05,2.6826e-05,1.6349e-05,1.2528e-08,9.7679e-10,8.834e-05,1.0426e-05,0.47992,0,0,C
95,7.67,177.774,0.048,13.868,1.543,2458600.5,0.1405965734268642,3.050889455781608,2.621944852394563,15.97316653099905,321.4970567055065,208.7460983344852,104.1265656489967,3.479834059168653,0.1849542715964476,2458037.514540133,1946.42706487734,1.64137,1.58329,3.163,4.1604e-08,1.5743e-08,1.3316e-07,5.3081e-06,1.1745e-05,2.0381e-05,1.7818e-05,1.7957e-08,1.4316e-09,9.5771e-05,1.5066e-05,0.45086,0,0,T
97,8.84,132.788,0.029,16.479,1.132,2458600.5,0.1867543695364545,2.687760362602735,2.185809370619789,15.5715187086934,353.9207094055536,158.7254547673639,125.6190517003099,3.189711354585681,0.2236754174123987,2458038.886868108,1609.475033799779,1.20184,1.81081,3.296,3.116e-08,8.7868e-09,8.2442e-08,3.1919e-06,1.6147e-05,2.0574e-05,1.3048e-05,1.0428e-08,1.0969e-09,5.7316e-05,7.8925e-06,0.46386,0,0,C
98,9.43,67.354,0.065,18.127,0.416,2458600.5,0.1950032371082054,2.665704209269417,2.145883259288912,13.84727328113644,41.52310357895091,195.608774283958,244.4234038048373,3.185525159249922,0.2264572021030578,2459110.8683836143,1589.70435321447,1.13799,1.82596,3.315,4.7548e-08,1.0357e-08,1.2557e-07,5.6383e-06,1.6543e-05,1.9509e-05,1.0938e-05,1.2377e-08,1.3198e-09,4.9211e-05,9.2647e-06,0.41767,0,0,X
99,7.67,85.734,0.205,27.066,1.961,2458600.5,0.169204159925186,3.087283251981108,2.564902082878548,6.43172428348024,127.1914077492695,184.5787620505965,246.4283279699524,3.609664421083668,0.1816934864326786,2459225.5728865406,1981.35886469099,1.54987,1.67148,3.194,4.3281e-08,1.3915e-08,1.3367e-07,4.9569e-06,4.043e-05,4.2998e-05,1.7477e-05,1.627e-08,1.2284e-09,9.8098e-05,1.3396e-05,0.48291,0,0,S
100,8.33,65.84,0.1898,23.08,1.3,2458600.5,0.1402330657737817,2.583800892115993,2.221466571665535,10.19447139778723,343.3897206642809,348.3528774875904,113.2828414337311,2.946135212566451,0.237309709737407,2458123.137141316,1517.004931649678,1.21145,2.42025,3.387,4.9764e-08,9.1096e-09,1.2893e-07,5.5618e-06,2.6277e-05,3.1094e-05,1.8324e-05,1.0387e-08,1.255e-09,7.6419e-05,8.0226e-06,0.48632,0,0,S
101,9.26,82.595,0.051,23.613,0.4,2458600.5,0.2520325435171376,2.662343774157076,1.991346501039252,5.176794423370953,210.8577652537467,147.0569011471535,251.2289158378281,3.333341047274899,0.2268860919541431,2459079.9083375726,1586.699285528533,0.989341,2.13768,3.333,3.1434e-08,7.564e-09,8.0874e-08,3.1858e-06,3.856e-05,3.9396e-05,1.0534e-05,9.4704e-09,9.6692e-10,4.8002e-05,6.762e-06,0.48184,0,0,C
102,7.66,83.908,0.217,23.74,2.091,2458600.5,0.07919872960798688,2.701656652620127,2.487688877895647,5.418388062856363,136.0836012702614,188.4790101799258,355.1128454810056,2.915624427344607,0.2219518870867968,2458622.518981605,1621.973143482298,1.47464,2.33091,3.356,3.725e-08,8.9416e-09,1.0125e-07,4.2065e-06,4.2829e-05,5.068e-05,2.8589e-05,9.6497e-09,1.1019e-09,0.00012883,8.0523e-06,0.51846,0,0,S
103,8.27,136.553,0.052,8.984,1.554,2458600.5,0.1605721988886849,3.1450163273037,2.640014140087729,2.790041491733666,41.67434220737528,31.83567663227534,278.3308436029854,3.65001851451967,0.1767134953753413,2459062.655740984,2037.195853295507,1.6552,1.63612,3.187,4.1339e-08,1.2949e-08,1.322e-07,4.8423e-06,8.4689e-05,8.5732e-05,1.4395e-05,1.5028e-08,1.0913e-09,8.2754e-05,1.2581e-05,0.46601,0,0,C
104,8.57,112.326,0.016,37.15506,0.375,2458600.5,0.1773784977829009,2.37391736179462,1.952835466298743,21.44015532979767,188.2573470807966,57.03036934107784,166.450192845068,2.794999257290497,0.2694670567721545,2457982.798545733,1335.970356867759,1.01144,2.31303,3.429,3.0791e-08,4.8726e-09,7.3838e-08,4.3277e-06,1.1462e-05,1.6968e-05,1.3489e-05,5.7368e-09,8.2964e-10,4.9293e-05,4.1132e-06,0.46649,0,0,C
105,7.41,207.869,0.044,16.21,2.158,2458600.5,0.1621661467170733,3.186263517335471,2.669559440303989,4.592182062796511,62.15755893255977,330.1541902102794,224.9628093822994,3.702967594366953,0.1732932064311972,2459379.7411104776,2077.4039987709,1.67634,1.73167,3.172,4.5869e-08,1.3341e-08,1.4361e-07,4.7364e-06,6.1552e-05,6.313e-05,1.5603e-05,1.5505e-08,1.0884e-09,9.2717e-05,1.3047e-05,0.54349,0,0,C
106,7.08,254.0,0.059,4.844,12.0,2458600.5,0.06537690301202546,3.49153854695891,3.263272570011629,9.999894694504883,172.5968063975373,306.594357059097,326.496474068359,3.719804523906192,0.1510702028309925,2458822.2745478842,2382.998058212344,2.29158,1.35217,3.1,3.0008e-08,1.6783e-08,1.0627e-07,3.6308e-06,2.0272e-05,3.6424e-05,3.1371e-05,1.788e-08,1.0892e-09,0.00020798,1.7182e-05,0.45376,0,0,X
107,8.09,75.498,0.148,14.256,1.891,2458600.5,0.05547508677911836,3.23657626270065,3.057026913660096,4.220482020488001,349.986057724393,205.5650348438454,334.863329826345,3.416125611741202,0.169268173098175,2458749.0020468617,2126.802655282402,2.05678,1.55362,3.178,3.7503e-08,1.5944e-08,1.2384e-07,4.606e-06,4.3902e-05,5.6394e-05,3.5886e-05,1.6829e-08,1.2508e-09,0.00021174,1.5716e-05,0.50829,0,0,S
108,8.75,82.588,0.056,13.191,0.616,2458600.5,0.2988888896814607,2.696073712116125,1.890247233802362,7.842541793741566,2.800710529372669,57.45138224915502,251.9754529866156,3.501900190429888,0.2226416598376022,2459085.694671528,1616.948060226414,0.915348,1.94475,3.291,4.1003e-08,7.2907e-09,1.1064e-07,5.3592e-06,3.2147e-05,3.3121e-05,8.6386e-06,9.4699e-09,9.031e-10,3.9701e-05,6.5588e-06,0.48409,0,0,C
109,7.8,86.09,0.1808,10.927,2.0,2458600.5,0.08145157028133726,2.731441253515427,2.508961074285371,5.964950625647203,56.8655779966722,283.1161272690289,206.9634010488777,2.953921432745483,0.2183314390932604,2459301.4370688284,1648.869267271333,1.50807,2.34848,3.341,3.6277e-08,9.416e-09,9.7139e-08,4.103e-06,3.8883e-05,4.7449e-05,2.713e-05,1.0183e-08,1.129e-09,0.0001249,8.5262e-06,0.40275,0,0,X
